{
  "type": "FeatureCollection",
  "features": [
    {
      "type": "Feature",
      "properties": {
        "norad_id": 41581,
        "name": "INTELSAT 31 (IS-31)",
        "group": "intelsat",
        "lat": 0.0014299963025636228,
        "lon": -54.38226818683358,
        "alt_km": 35786.25695453271,
        "timestamp": "2025-12-08T21:31:04.343104+00:00",
        "meta_object_name": "INTELSAT 31 (IS-31)",
        "meta_object_id": "2016-035A",
        "meta_epoch": "2025-12-08T12:24:17.231040",
        "meta_mean_motion": 1.00269201,
        "meta_eccentricity": 0.0001923,
        "meta_inclination": 0.0201,
        "meta_ra_of_asc_node": 270.4378,
        "meta_arg_of_pericenter": 308.9004,
        "meta_mean_anomaly": 309.1947,
        "meta_ephemeris_type": 0,
        "meta_classification_type": "U",
        "meta_norad_cat_id": 41581,
        "meta_element_set_no": 999,
        "meta_rev_at_epoch": 3477,
        "meta_bstar": 0,
        "meta_mean_motion_dot": -1.48e-06,
        "meta_mean_motion_ddot": 0,
        "tle_line1": "1 41581U 16035A   25342.51686610 -.00000148  00000+0  00000+0 0  9995",
        "tle_line2": "2 41581   0.0201 270.4378 0001923 308.9004 309.1947  1.00269201 34779"
      },
      "geometry": {
        "type": "Point",
        "coordinates": [
          -54.38226818683358,
          0.0014299963025636228
        ]
      }
    },
    {
      "type": "Feature",
      "properties": {
        "norad_id": 41747,
        "name": "INTELSAT 36 (IS-36)",
        "group": "intelsat",
        "lat": 0.02798804154565866,
        "lon": 109.16326009045439,
        "alt_km": 35791.84226053838,
        "timestamp": "2025-12-08T21:31:04.343116+00:00",
        "meta_object_name": "INTELSAT 36 (IS-36)",
        "meta_object_id": "2016-053A",
        "meta_epoch": "2025-12-08T12:13:07.705344",
        "meta_mean_motion": 1.0026981,
        "meta_eccentricity": 0.00013784,
        "meta_inclination": 0.0114,
        "meta_ra_of_asc_node": 350.963,
        "meta_arg_of_pericenter": 324.2523,
        "meta_mean_anomaly": 14.0801,
        "meta_ephemeris_type": 0,
        "meta_classification_type": "U",
        "meta_norad_cat_id": 41747,
        "meta_element_set_no": 999,
        "meta_rev_at_epoch": 3403,
        "meta_bstar": 0,
        "meta_mean_motion_dot": -2.2e-07,
        "meta_mean_motion_ddot": 0,
        "tle_line1": "1 41747U 16053A   25342.50911696 -.00000022  00000+0  00000+0 0  9994",
        "tle_line2": "2 41747   0.0114 350.9630 0001378 324.2523  14.0801  1.00269810 34038"
      },
      "geometry": {
        "type": "Point",
        "coordinates": [
          109.16326009045439,
          0.02798804154565866
        ]
      }
    },
    {
      "type": "Feature",
      "properties": {
        "norad_id": 41945,
        "name": "INTELSAT 32E (IS-32E)",
        "group": "intelsat",
        "lat": -0.01612662081232968,
        "lon": -2.5045548959874435,
        "alt_km": 35784.86575142263,
        "timestamp": "2025-12-08T21:31:04.343127+00:00",
        "meta_object_name": "INTELSAT 32E (IS-32E)",
        "meta_object_id": "2017-007B",
        "meta_epoch": "2025-12-08T09:58:28.100928",
        "meta_mean_motion": 1.00273553,
        "meta_eccentricity": 2.799e-05,
        "meta_inclination": 0.0258,
        "meta_ra_of_asc_node": 66.5377,
        "meta_arg_of_pericenter": 242.4063,
        "meta_mean_anomaly": 234.9251,
        "meta_ephemeris_type": 0,
        "meta_classification_type": "U",
        "meta_norad_cat_id": 41945,
        "meta_element_set_no": 999,
        "meta_rev_at_epoch": 3231,
        "meta_bstar": 0,
        "meta_mean_motion_dot": -2.66e-06,
        "meta_mean_motion_ddot": 0,
        "tle_line1": "1 41945U 17007B   25342.41560302 -.00000266  00000+0  00000+0 0  9998",
        "tle_line2": "2 41945   0.0258  66.5377 0000279 242.4063 234.9251  1.00273553 32314"
      },
      "geometry": {
        "type": "Point",
        "coordinates": [
          -2.5045548959874435,
          -0.01612662081232968
        ]
      }
    },
    {
      "type": "Feature",
      "properties": {
        "norad_id": 42818,
        "name": "INTELSAT 35E (IS-35E)",
        "group": "intelsat",
        "lat": 0.02139769645881333,
        "lon": 6.188954622122898,
        "alt_km": 35788.871649534754,
        "timestamp": "2025-12-08T21:31:04.343139+00:00",
        "meta_object_name": "INTELSAT 35E (IS-35E)",
        "meta_object_id": "2017-041A",
        "meta_epoch": "2025-12-08T10:00:57.862368",
        "meta_mean_motion": 1.00269498,
        "meta_eccentricity": 0.00023423,
        "meta_inclination": 0.0175,
        "meta_ra_of_asc_node": 326.308,
        "meta_arg_of_pericenter": 297.6288,
        "meta_mean_anomaly": 289.2347,
        "meta_ephemeris_type": 0,
        "meta_classification_type": "U",
        "meta_norad_cat_id": 42818,
        "meta_element_set_no": 999,
        "meta_rev_at_epoch": 3090,
        "meta_bstar": 0,
        "meta_mean_motion_dot": -2.36e-06,
        "meta_mean_motion_ddot": 0,
        "tle_line1": "1 42818U 17041A   25342.41733637 -.00000236  00000+0  00000+0 0  9996",
        "tle_line2": "2 42818   0.0175 326.3080 0002342 297.6288 289.2347  1.00269498 30909"
      },
      "geometry": {
        "type": "Point",
        "coordinates": [
          6.188954622122898,
          0.02139769645881333
        ]
      }
    },
    {
      "type": "Feature",
      "properties": {
        "norad_id": 42950,
        "name": "INTELSAT 37E (IS-37E)",
        "group": "intelsat",
        "lat": 0.017199819214827883,
        "lon": 22.690611421580993,
        "alt_km": 35795.516516808195,
        "timestamp": "2025-12-08T21:31:04.343150+00:00",
        "meta_object_name": "INTELSAT 37E (IS-37E)",
        "meta_object_id": "2017-059A",
        "meta_epoch": "2025-12-08T10:05:34.920384",
        "meta_mean_motion": 1.00270747,
        "meta_eccentricity": 0.00034111,
        "meta_inclination": 0.0168,
        "meta_ra_of_asc_node": 3.1652,
        "meta_arg_of_pericenter": 250.2554,
        "meta_mean_anomaly": 317.4037,
        "meta_ephemeris_type": 0,
        "meta_classification_type": "U",
        "meta_norad_cat_id": 42950,
        "meta_element_set_no": 999,
        "meta_rev_at_epoch": 3015,
        "meta_bstar": 0,
        "meta_mean_motion_dot": -1.38e-06,
        "meta_mean_motion_ddot": 0,
        "tle_line1": "1 42950U 17059A   25342.42054306 -.00000138  00000+0  00000+0 0  9993",
        "tle_line2": "2 42950   0.0168   3.1652 0003411 250.2554 317.4037  1.00270747 30158"
      },
      "geometry": {
        "type": "Point",
        "coordinates": [
          22.690611421580993,
          0.017199819214827883
        ]
      }
    },
    {
      "type": "Feature",
      "properties": {
        "norad_id": 43632,
        "name": "AZERSPACE 2 (IS-38)",
        "group": "intelsat",
        "lat": 0.03724861958081074,
        "lon": 85.76738461720252,
        "alt_km": 35793.19270073447,
        "timestamp": "2025-12-08T21:31:04.343161+00:00",
        "meta_object_name": "AZERSPACE 2 (IS-38)",
        "meta_object_id": "2018-074A",
        "meta_epoch": "2025-12-08T13:49:06.013056",
        "meta_mean_motion": 1.00269934,
        "meta_eccentricity": 0.00015806,
        "meta_inclination": 0.0177,
        "meta_ra_of_asc_node": 335.2982,
        "meta_arg_of_pericenter": 282.8901,
        "meta_mean_anomaly": 71.7785,
        "meta_ephemeris_type": 0,
        "meta_classification_type": "U",
        "meta_norad_cat_id": 43632,
        "meta_element_set_no": 999,
        "meta_rev_at_epoch": 2653,
        "meta_bstar": 0,
        "meta_mean_motion_dot": 1.39e-06,
        "meta_mean_motion_ddot": 0,
        "tle_line1": "1 43632U 18074A   25342.57576404  .00000139  00000+0  00000+0 0  9993",
        "tle_line2": "2 43632   0.0177 335.2982 0001580 282.8901  71.7785  1.00269934 26536"
      },
      "geometry": {
        "type": "Point",
        "coordinates": [
          85.76738461720252,
          0.03724861958081074
        ]
      }
    },
    {
      "type": "Feature",
      "properties": {
        "norad_id": 43633,
        "name": "HORIZONS-3E",
        "group": "intelsat",
        "lat": -0.017839864636066276,
        "lon": -150.34489364549745,
        "alt_km": 35786.29845474523,
        "timestamp": "2025-12-08T21:31:04.343173+00:00",
        "meta_object_name": "HORIZONS-3E",
        "meta_object_id": "2018-074B",
        "meta_epoch": "2025-12-08T14:38:38.663808",
        "meta_mean_motion": 1.00267707,
        "meta_eccentricity": 0.00013308,
        "meta_inclination": 0.0425,
        "meta_ra_of_asc_node": 176.8532,
        "meta_arg_of_pericenter": 113.5784,
        "meta_mean_anomaly": 175.8576,
        "meta_ephemeris_type": 0,
        "meta_classification_type": "U",
        "meta_norad_cat_id": 43633,
        "meta_element_set_no": 999,
        "meta_rev_at_epoch": 2643,
        "meta_bstar": 0,
        "meta_mean_motion_dot": -2.9e-07,
        "meta_mean_motion_ddot": 0,
        "tle_line1": "1 43633U 18074B   25342.61016972 -.00000029  00000+0  00000+0 0  9997",
        "tle_line2": "2 43633   0.0425 176.8532 0001330 113.5784 175.8576  1.00267707 26434"
      },
      "geometry": {
        "type": "Point",
        "coordinates": [
          -150.34489364549745,
          -0.017839864636066276
        ]
      }
    }
  ]
}